CUTE-1 (CO-55)          
1 27844U 03031E   18307.96838622  .00000059  00000-0  46435-4 0  9995
2 27844  98.6873 314.5656 0009278 332.9615  27.1078 14.22141781796023
CUBESAT XI-IV (CO-57)   
1 27848U 03031J   18308.52979167  .00000046  00000-0  40905-4 0  9994
2 27848  98.6957 315.5612 0009332 342.7196  17.3663 14.21742416796007
CUBESAT XI 5            
1 28895U 05043F   18307.94979669  .00000108  00000-0  29621-4 0  9995
2 28895  97.9285  93.9119 0016509 352.4528   7.6424 14.63597292694084
CUTE-1.7+APD II (CO-65) 
1 32785U 08021C   18308.17280182  .00000189  00000-0  26092-4 0  9996
2 32785  97.5471 313.6689 0011741 297.5250  62.4773 14.88198934569992
AAUSAT-II               
1 32788U 08021F   18308.02819886  .00000343  00000-0  36778-4 0  9996
2 32788  97.5128 328.6501 0010544 235.7826 124.2396 14.94499351571069
DELFI-C3 (DO-64)        
1 32789U 08021G   18307.68542011  .00001254  00000-0  89078-4 0  9994
2 32789  97.4968 358.8683 0012684 174.8340 185.3020 15.06419000572686
SEEDS II (CO-66)        
1 32791U 08021J   18308.03175065  .00000276  00000-0  33544-4 0  9998
2 32791  97.5326 319.1846 0011853 273.4622  86.5241 14.90661963570342
SWISSCUBE               
1 35932U 09051B   18307.92322827  .00000108  00000-0  35428-4 0  9996
2 35932  98.5632 102.6018 0008444 136.0060 224.1811 14.56211301483739
BEESAT                  
1 35933U 09051C   18308.42173096  .00000108  00000-0  35333-4 0  9990
2 35933  98.5668 104.7482 0006528 144.6995 215.4635 14.56309462483957
ITUPSAT 1               
1 35935U 09051E   18308.41851873  .00000075  00000-0  28343-4 0  9993
2 35935  98.5780 104.9944 0008852 143.2355 216.9450 14.55480089483726
TISAT 1                 
1 36799U 10035E   18308.45621124  .00000295  00000-0  35994-4 0  9998
2 36799  98.1264  88.5734 0013637 107.0785 253.1927 14.90922344451051
M-CUBED & EXP-1 PRIME   
1 37855U 11061F   18308.38428997  .00000765  00000-0  46747-4 0  9997
2 37855 101.7210  82.6657 0175281  27.2049 333.8213 15.04846358382734
STRAND-1                
1 39090U 13009E   18307.83774082  .00000042  00000-0  30119-4 0  9996
2 39090  98.5067 152.3169 0008157 239.9317 120.1060 14.35056603297832
AIST-2 (RS-43)          
1 39133U 13015D   18308.57509794  .00000037  00000-0  14905-4 0  9998
2 39133  64.8732 127.9383 0007849 211.8221 221.1687 15.04629245304337
SOMP                    
1 39134U 13015E   18307.61114913  .00000862  00000-0  49731-4 0  9999
2 39134  64.8651  35.7754 0007060 316.7579  43.2993 15.19544377306087
BEESAT-3                
1 39135U 13015F   18307.66739392  .00000938  00000-0  57107-4 0  9999
2 39135  64.8704  50.7834 0009127 249.6257 110.3889 15.16981094305803
BEESAT-2                
1 39136U 13015G   18307.75274088  .00000683  00000-0  44905-4 0  9995
2 39136  64.8707  53.6775 0010948 245.4945 114.5040 15.16432361305368
NEE-01 PEGASUS          
1 39151U 13018B   18308.25793281  .00000123  00000-0  23227-4 0  9995
2 39151  97.9757  41.3428 0016432 211.2179 148.8058 14.79958824298231
ESTCUBE 1               
1 39161U 13021C   18308.45637642  .00000137  00000-0  29710-4 0  9998
2 39161  98.0021  32.1466 0008957 337.7039  22.3781 14.72121081295089
POPACS 1                
1 39268U 13055D   18308.15727780  .00002972  00000-0  82452-4 0  9994
2 39268  81.0048 199.3396 0633159 173.3012 187.7177 14.35389084264527
POPACS 2                
1 39269U 13055E   18307.74776356  .00001300  00000-0  37913-4 0  9998
2 39269  81.0172 224.6176 0687417 238.9955 114.1978 14.22930728261763
POPACS 3                
1 39270U 13055F   18307.55864685  .00001332  00000-0  42234-4 0  9999
2 39270  81.0183 238.7349 0715889 280.4355  71.6963 14.15210968241360
ZACUBE-1 (TSHEPISOSAT)  
1 39417U 13066B   18308.10634891  .00000214  00000-0  33268-4 0  9995
2 39417  97.5775 329.2019 0060287  57.6298 303.0730 14.81003359267502
WNISAT-1                
1 39423U 13066H   18308.55463044  .00000040  00000-0  18190-4 0  9995
2 39423  97.7436 261.9272 0174761 299.3652  59.0173 14.52991931262616
GOMX 1                  
1 39430U 13066Q   18308.40387219  .00000118  00000-0  30750-4 0  9998
2 39430  97.7148 275.3034 0149952 247.9964 110.5253 14.59149633263601
CUBEBUG-2 (LO-74)       
1 39440U 13066AA  18307.95566356  .00000209  00000-0  35821-4 0  9994
2 39440  97.6000 314.8788 0081861 101.4055 259.6365 14.75743000265339
NEE-02 KRYSAOR          
1 39441U 13066AB  18307.58441796  .00000131  00000-0  25598-4 0  9998
2 39441  97.6015 312.5527 0083291 108.2400 252.7897 14.74827345266328
FUNCUBE-1 (AO-73)       
1 39444U 13066AE  18307.96019692  .00000246  00000-0  36604-4 0  9996
2 39444  97.5776 330.7624 0059318  53.0738 307.5889 14.81800986265765
UWE-3                   
1 39446U 13066AG  18308.00970429  .00000202  00000-0  33410-4 0  9992
2 39446  97.5872 321.5775 0071607  79.9897 280.9386 14.78277571265778
BRITE-TORONTO           
1 40020U 14033L   18308.56931314  .00000067  00000-0  19783-4 0  9994
2 40020  97.7670 159.6314 0088004 156.7479 203.7745 14.66529216234168
DUCHIFAT-1              
1 40021U 14033M   18307.97554470  .00000351  00000-0  41875-4 0  9996
2 40021  97.9152 226.9340 0014413  78.3803 281.9031 14.90430504237770
NANOSATC-BR1            
1 40024U 14033Q   18308.48955206  .00000229  00000-0  29827-4 0  9995
2 40024  97.9072 225.4022 0013706  79.4834 280.7926 14.89676069237760
QB50P1                  
1 40025U 14033R   18307.81235252  .00000201  00000-0  27470-4 0  9996
2 40025  97.9019 222.8904 0013931  86.0512 274.2297 14.88803771237567
QB50P2                  
1 40032U 14033Y   18307.81089724  .00000207  00000-0  28398-4 0  9991
2 40032  97.8963 221.3990 0013333  82.4135 277.8595 14.88344694237494
PERSEUS-M2              
1 40037U 14033AD  18307.83622325  .00000051  00000-0  12046-4 0  9998
2 40037  97.8929 218.5050 0015856  91.6954 268.6078 14.86396932236773
PERSEUS-M1              
1 40039U 14033AF  18308.36810355  .00000048  00000-0  11710-4 0  9994
2 40039  97.8923 218.3038 0015711  87.3498 272.9516 14.86018337237291
POLYITAN-1              
1 40042U 14033AJ  18307.83110812  .00000267  00000-0  34715-4 0  9993
2 40042  97.9096 223.1021 0016155  75.9208 284.3803 14.88494114236971
TIGRISAT                
1 40043U 14033AK  18308.19950092  .00000137  00000-0  27518-4 0  9995
2 40043  97.7861 180.2406 0061354 107.1023 253.6918 14.74190301235234
AEROCUBE 6A             
1 40045U 14033AM  18308.37528601  .00000307  00000-0  51547-4 0  9992
2 40045  97.8051 183.2341 0059164 100.1635 260.6255 14.75240074235198
AEROCUBE 6B             
1 40046U 14033AN  18307.69928625  .00000256  00000-0  44218-4 0  9997
2 40046  97.8008 182.3651 0058513 101.7969 258.9812 14.75225254235236
UKUBE-1                 
1 40074U 14037F   18308.47947768  .00000308  00000-0  44269-4 0  9992
2 40074  98.4058  93.0036 0003750 218.7658 141.3272 14.83904694234102
BRITE-PL 2              
1 40119U 14049B   18308.22356406  .00000099  00000-0  18256-4 0  9995
2 40119  97.9150  35.7794 0016316 238.1976 121.7650 14.84334812228075
FIREBIRD 4              
1 40378U 15003C   18308.35903228  .00001188  00000-0  51589-4 0  9993
2 40378  99.0846 237.9593 0130839 123.8295 237.5470 15.17776012207589
GRIFEX                  
1 40379U 15003D   18308.46990442  .00000776  00000-0  37791-4 0  9991
2 40379  99.0845 233.5052 0137971 138.1780 223.0089 15.14741367207334
EXOCUBE                 
1 40380U 15003E   18308.03202824  .00000617  00000-0  32344-4 0  9999
2 40380  99.0878 230.4624 0142497 148.1605 212.8335 15.12865239207095
TIANWANG 1C (TW-1C)     
1 40926U 15051B   18308.48267352  .00007722  00000-0  13275-3 0  9999
2 40926  97.1706 350.2530 0011385 122.8150 344.5952 15.51328713175043
TIANWANG 1A (TW-1A)     
1 40928U 15051D   18308.52144628  .00002332  00000-0  61500-4 0  9993
2 40928  97.1731 339.6948 0011812 164.9516 331.7556 15.39427394174368
EXACTVIEW 9             
1 40936U 15052G   18307.58198675  .00000762  00000-0  17633-4 0  9992
2 40936   6.0031 240.2180 0010500 172.1708 187.8583 14.76430037167608
ATHENOXAT 1             
1 41168U 15077C   18308.51777639  .00001854  00000-0  63962-4 0  9993
2 41168  14.9820  72.9874 0012099 187.5347 246.0144 15.13104713159663
GALASSIA                
1 41170U 15077E   18307.75777213  .00001677  00000-0  53545-4 0  9998
2 41170  14.9889  72.5255 0013041 201.9990 157.9771 15.13458149159608
VELOX 2                 
1 41171U 15077F   18308.01496574  .00001359  00000-0  40420-4 0  9992
2 41171  14.9913  96.4721 0008754 137.0884 223.0120 15.10869654159412
HORYU-IV                
1 41340U 16012D   18307.90000765  .00000407  00000-0  24374-4 0  9993
2 41340  31.0039 137.8436 0013907  38.2893 321.8728 15.01095191148900
E-ST@R-II               
1 41459U 16025D   18308.43598485  .00000548  00000-0  32585-4 0  9997
2 41459  98.1226  18.4871 0170793  38.5561 322.7715 15.04804746138511
AAUSAT 4                
1 41460U 16025E   18308.40632568  .00001982  00000-0  10465-3 0  9992
2 41460  98.1166  19.1984 0160550  33.5912 327.5375 15.06410245138596
DIWATA-1                
1 41463U 98067HT  18308.44989387  .00011426  00000-0  83990-4 0  9997
2 41463  51.6392 334.5816 0001271  20.9759 122.4263 15.73646667144065
BEESAT-4                
1 41619U 16040W   18307.88028730  .00001085  00000-0  49766-4 0  9997
2 41619  97.3996   9.0026 0013203  99.6912 260.5817 15.22505495119343
CANX-7                  
1 41788U 16059F   18308.44388077  .00005512  00000-0  90085-3 0  9998
2 41788  98.2207  15.9713 0026019  11.8935 348.2987 14.71051079112717
ALSAT 1N                
1 41789U 16059G   18308.39390827  .00000065  00000-0  21487-4 0  9998
2 41789  98.1036   9.0792 0028585   9.2209 350.9512 14.64191478112537
RAVAN                   
1 41849U 16067B   18307.83188515 -.00000156  00000-0 -80512-5 0  9999
2 41849  97.9246  38.6548 0009607  61.7396 298.4794 14.97970762108030
